#dP2020 10 31  0  0  0.00000000      96 __u+U ITR00 FIT  IAC
## 2129 518400.00000000   900.00000000 59153 0.0000000000000
+  116   C01C02C03C04C05C06C07C08C09C10C11C12C13C14C16C19C20
+        C21C22C23C24C25C26C27C28C29C30C32C33C34C35C36C37C38
+        C39C40C43C44C45E01E02E03E04E05E07E08E09E11E12E13E14
+        E15E18E19E21E24E25E26E27E30E31E33E36G01G02G03G04G05
+        G06G07G08G09G10G11G12G16G19G20G21G22G23G24G25G26G27
+        G28G29G30G31G32J01J02J03J07R01R02R03R04R05R07R08R09
+        R11R12R13R14R15R16R17R18R19R20R21R22R23R24  0  0  0
++        13  0  0  0  0  8  8  8  8  8  8  8  8  8  8  8  8
++         8  8  8  8  8  8  8  8  8  8  8  8  8  8  8  8 10
++         0  9  0  9  0  5  4  5  5  5  5  5  5  5  5  5  5
++         5  5  5  6  5  5  5  5  4  5  5  5  4  4  4  4  4
++         4  4  4  4  4  4  4  4  4  4  4  4  4  4  4  4  4
++         4  4  4  4  4  9  9  9 13  6  6  6  6  6  6  6  6
++         6  6  6  6  6  6  5  6  7  7  6  7  6  5  0  0  0
%c M  cc GPS ccc cccc cccc cccc cccc ccccc ccccc ccccc ccccc
%c cc cc ccc ccc cccc cccc cccc cccc ccccc ccccc ccccc ccccc
%f  0.0000000  0.000000000  0.00000000000  0.000000000000000
%f  0.0000000  0.000000000  0.00000000000  0.000000000000000
%i    0    0    0    0      0      0      0      0         0
%i    0    0    0    0      0      0      0      0         0
/* INFORMATION & ANALYSIS CENTER (IAC)            RAPID DATA
/* S/V CLOCKS ARE ALIGNED TO GNSS TIME                      
/* G:C1WC2W R:C1PC2P E:C1XC5X C:C2IC6I J:C1CC2S             
/* PCV:IGS14_2118 OL/AL:FES2004  NONE     YN ORB:CoN CLK:CoN
*  2020 10 31  7  0  0.00000000
PC01 -34370.172341  24408.606982   -104.151547   -770.170684
PC02      0.000000      0.000000      0.000000 999999.999999
PC03      0.000000      0.000000      0.000000 999999.999999
PC04      0.000000      0.000000      0.000000 999999.999999
PC05      0.000000      0.000000      0.000000 999999.999999
PC06 -10240.608748  23138.923032  34181.754057     80.129943
PC07 -25237.730647  29263.995052 -17206.442747   -148.163280
PC08 -11905.931216  37589.890167 -14310.701803   -654.355649
PC09   5435.289538  30838.774255  28675.826479    907.138518
PC10 -10768.181280  30528.411354 -27004.853668   -152.162518
PC11 -16048.435278 -22426.921686   4534.145747   -720.375231
PC12  -1219.407735 -20156.312980  19315.098283    584.125742
PC13  -3474.724641  41848.702229   -770.331530    721.450254
PC14 -11598.147175 -12929.138300 -21835.579787    444.978211
PC16  -6945.854356  24235.642413  33900.581521   -602.718805
PC19  20448.339154   7577.975882  17419.883548    601.195481
PC20   2159.734935  15819.795878  22893.244291   -875.224403
PC21  18217.024640 -14939.902945 -14935.523166   -709.953946
PC22  27345.137121  -5247.028634   1640.027464   -782.292268
PC23 -17552.684792   6954.810515  20559.204706   -913.207780
PC24   1314.953111 -26289.642389   9308.742832   -720.590459
PC25 -12181.085798 -12974.225312  21499.321949   -810.186102
PC26  12244.460398 -24036.991123  -7219.200669    886.997111
PC27  -7991.724262  14384.455591 -22553.727365    424.793658
PC28 -20238.137033  -2874.630880 -18998.417008   -151.714369
PC29  21257.081131  17544.128801   4352.036644    304.744454
PC30   9384.769217  22745.744657 -13178.402850    397.216381
PC32 -18140.838483  15083.380515  14913.945855   -894.805996
PC33 -20446.093243  -7534.503667 -17445.118549   -824.035905
PC34  -9794.971271 -22834.864446  12682.677765   -819.777224
PC35  20469.733118   2379.970369  18829.401562   -582.274449
PC36  11713.390871  13510.853021 -21393.378761   -855.309371
PC37 -13165.602197  23285.681278   7939.478002   -885.485248
PC38  -9754.536245  39763.413735  -9767.386033    109.297199
PC39      0.000000      0.000000      0.000000 999999.999999
PC40 -18132.059978  26135.382930 -27727.579525     96.250910
PC43      0.000000      0.000000      0.000000 999999.999999
PC44   7803.149684 -14546.044648  22494.390330   -140.972091
PC45      0.000000      0.000000      0.000000 999999.999999
PE01 -21136.115670  20635.634422   1883.105827   -972.735822
PE02  21085.848291 -20710.812425  -1752.905673    172.920767
PE03  19147.045080 -10205.944671 -20137.009669   -359.737750
PE04   1660.619116  17646.851497  23703.716327   -638.134487
PE05  29033.718734   3339.934243  -4696.331821   -333.377749
PE07 -21880.361681 -14816.294283 -13350.608479   -455.692033
PE08  -2124.557405 -17540.810691 -23755.882514   6098.679871
PE09  22065.448086  14555.494782  13301.039903   5880.973413
PE11  14667.157085  23397.752162  10658.438287   6637.897522
PE12   2842.360221  28149.123960  -8709.045444   5529.843328
PE13 -14596.735192 -23560.431779 -10396.497266    405.464190
PE14  -2520.260966  21032.506962 -23682.939412  -1209.018889
PE15  -3062.251567 -28158.932313   8616.172471    845.970267
PE18  -9406.537672 -18777.768311  13666.925838  -1320.687890
PE19 -21016.765821   8728.944705  18923.844874    116.524683
PE21 -22445.524835   5987.804148  18350.824281   -629.441858
PE24  10343.398723  13052.306741 -24472.069360   -557.919593
PE25  22397.768592  -5856.044610 -18433.478279   -519.295275
PE26 -17591.479642  -4513.673604 -23372.459884   2550.868896
PE27 -10761.168820 -12589.760988  24544.491092    102.585767
PE30   7820.388115 -23781.559052  15804.357206   3462.222478
PE31  -7184.608792  23653.570486 -16264.761780   -475.307000
PE33 -10260.826480  16196.697986 -22543.199224   -463.070015
PE36  17544.876304   5109.744781  23289.931695    487.307016
PG01  13572.449641  -8289.601336  20969.885266    811.796942
PG02 -13875.614028 -14195.292724 -17008.183760   -536.539745
PG03  23069.076737 -12643.145634   3175.567309   -340.818522
PG04  19797.823182  -3172.913788 -17435.792649   -150.698803
PG05 -18451.556930  -3429.521173 -19020.004877    -24.716677
PG06  -5864.850521 -25050.785113  -6460.905213   -336.318824
PG07   6638.210614 -22830.629485 -10988.830933   -404.598633
PG08  24476.477509   4270.525423   9774.896196    -53.381922
PG09   9031.378050 -12682.221982 -21581.043896   -307.398936
PG10  -3084.118524  18026.920729  19256.120997   -493.057281
PG11  17689.108441    701.397621  19242.207728   -121.922062
PG12 -24085.045772   9580.358690   5176.877141     46.805046
PG16  18827.258145   4186.158228 -18676.793608   -229.841623
PG19 -15174.794400 -18554.524067  11234.554258    -84.633185
PG20 -12785.852142  20931.371274   9784.219580    526.206709
PG21  15948.326776   5568.579332  21328.314200     63.368554
PG22  22827.803027  -7598.431466  11276.756485   -736.440560
PG23 -13049.572777  19573.173336  12274.920120     93.981517
PG24 -15082.856607   4622.223664  21121.028903      7.091775
PG25 -18877.287088  17546.784195  -6047.177228     14.105341
PG26   8626.542632  12987.780484 -21531.777587    304.086820
PG27  23479.479966  12753.848493  -1411.162374     -3.031488
PG28   3003.956448 -17368.599440  20500.938999    661.300470
PG29 -11907.337162   9695.203032 -21715.611627   -226.726541
PG30    559.708613 -26362.780439  -1892.562348   -327.172518
PG31   7027.988344  23826.438084  -8774.143901    -78.405044
PG32  10189.516885  18106.481283  16720.731842    363.012307
PJ01 -31080.955354  24238.031038  19979.390223   -337.982824
PJ02 -32787.810388  26047.856805   9393.589474     -6.003545
PJ03 -23138.795936  18470.035793 -25429.539710     -2.541105
PJ07 -25401.134681  33646.502123     40.089540      0.022169
PR01  -4929.728328 -10658.340268 -22651.530209     69.880647
PR02 -23183.853974  -3797.793153  -9829.289035    452.319132
PR03 -23869.543052   4651.525242   7642.514614     24.727973
PR04 -11057.712278  10162.446638  20633.872128     59.876447
PR05   7966.733650  10053.106961  22054.923066     60.234748
PR07  23706.937505  -4845.649407  -8117.395340    -41.081054
PR08  11108.981581 -10236.107671 -20514.738770    -55.462024
PR09  10729.313284   3638.067807 -22830.933105      5.191886
PR11  10579.559229 -23071.828244   2291.899689    -43.016016
PR12    482.011490 -18796.614188  17280.391578    176.244032
PR13 -10383.843073  -3724.631494  22988.795003    -45.925324
PR14 -15303.730544  13773.988403  15084.662276     57.198065
PR15 -11200.256845  22876.415088  -1343.391830    106.924355
PR16    614.252097  18270.836826 -17743.726956     -7.740716
PR17 -11828.505925    484.993602 -22590.381869    370.193711
PR18   -997.352982  15555.557230 -20189.306673     54.559527
PR19   9341.333695  22474.644043  -7610.466910   -117.692347
PR20  15696.717950  16130.760893  12044.694293   -425.441823
PR21  11185.670256  -1543.653861  22871.299590   -162.813351
PR22    270.031763 -16258.716208  19609.478271    -79.717185
PR23 -13358.552311 -21736.550423    103.908888    341.821925
PR24 -16091.599614 -15334.607594 -12516.218202     18.817713
EOF
